{
    "links": {
        "self": "http://www.neowsapp.com/rest/v1/neo/3879272?api_key=iIulBulltgU6a56xZRHN4H3l9WmuAYTsLGpBGhQ2"
    },
    "id": "3879272",
    "neo_reference_id": "3879272",
    "name": "(2019 UP1)",
    "designation": "2019 UP1",
    "nasa_jpl_url": "http://ssd.jpl.nasa.gov/sbdb.cgi?sstr=3879272",
    "absolute_magnitude_h": 25.3,
    "estimated_diameter": {
        "kilometers": {
            "estimated_diameter_min": 0.0231502122,
            "estimated_diameter_max": 0.0517654482
        },
        "meters": {
            "estimated_diameter_min": 23.150212221,
            "estimated_diameter_max": 51.7654482198
        },
        "miles": {
            "estimated_diameter_min": 0.0143848705,
            "estimated_diameter_max": 0.0321655483
        },
        "feet": {
            "estimated_diameter_min": 75.9521422633,
            "estimated_diameter_max": 169.8341531374
        }
    },
    "is_potentially_hazardous_asteroid": false,
    "close_approach_data": [
        {
            "close_approach_date": "2017-06-08",
            "close_approach_date_full": "2017-Jun-08 11:22",
            "epoch_date_close_approach": 1496920920000,
            "relative_velocity": {
                "kilometers_per_second": "17.3369781709",
                "kilometers_per_hour": "62413.1214150848",
                "miles_per_hour": "38781.0864703898"
            },
            "miss_distance": {
                "astronomical": "0.3884279649",
                "lunar": "151.0984783461",
                "kilometers": "58107996.197474763",
                "miles": "36106634.5502192094"
            },
            "orbiting_body": "Earth"
        },
        {
            "close_approach_date": "2019-05-30",
            "close_approach_date_full": "2019-May-30 10:54",
            "epoch_date_close_approach": 1559213640000,
            "relative_velocity": {
                "kilometers_per_second": "9.5177219199",
                "kilometers_per_hour": "34263.7989114884",
                "miles_per_hour": "21290.1921625301"
            },
            "miss_distance": {
                "astronomical": "0.4863633167",
                "lunar": "189.1953301963",
                "kilometers": "72758916.224455429",
                "miles": "45210294.1126817602"
            },
            "orbiting_body": "Earth"
        },
        {
            "close_approach_date": "2019-10-15",
            "close_approach_date_full": "2019-Oct-15 17:40",
            "epoch_date_close_approach": 1571161200000,
            "relative_velocity": {
                "kilometers_per_second": "13.9140624218",
                "kilometers_per_hour": "50090.6247183821",
                "miles_per_hour": "31124.3662312636"
            },
            "miss_distance": {
                "astronomical": "0.0601103368",
                "lunar": "23.3829210152",
                "kilometers": "8992378.350262616",
                "miles": "5587604.8061754608"
            },
            "orbiting_body": "Earth"
        }
    ],
    "orbital_data": {
        "orbit_id": "2",
        "orbit_determination_date": "2019-10-29 06:39:47",
        "first_observation_date": "2019-10-19",
        "last_observation_date": "2019-10-29",
        "data_arc_in_days": 10,
        "observations_used": 24,
        "orbit_uncertainty": "8",
        "minimum_orbit_intersection": ".0591941",
        "jupiter_tisserand_invariant": "4.132",
        "epoch_osculation": "2458777.5",
        "eccentricity": ".4324308281891324",
        "semi_major_axis": "1.638467692601972",
        "inclination": "19.18202684886939",
        "ascending_node_longitude": "208.7089004804532",
        "orbital_period": "766.0467076936827",
        "perihelion_distance": ".9299437513289643",
        "perihelion_argument": "123.4926368107539",
        "aphelion_distance": "2.34699163387498",
        "perihelion_time": "2458731.243183236314",
        "mean_anomaly": "21.73817062025118",
        "mean_motion": ".4699452349111229",
        "equinox": "J2000",
        "orbit_class": {
            "orbit_class_type": "APO",
            "orbit_class_description": "Near-Earth asteroid orbits which cross the Earth’s orbit similar to that of 1862 Apollo",
            "orbit_class_range": "a (semi-major axis) > 1.0 AU; q (perihelion) < 1.017 AU"
        }
    },
    "is_sentry_object": false
}